TIBA-1                  
1 44800U 19080A   26167.92325309  .00000153  00000+0  00000+0 0  9996
2 44800   0.0531  11.4815 0001815  85.4779 176.0733  1.00270598 24052
INMARSAT GX5            
1 44801U 19080B   26167.91497132  .00000072  00000+0  00000+0 0  9990
2 44801   0.0344 353.9608 0002265 108.1800 143.4606  1.00272863  6781
JCSAT-18 (KACIFIC 1)    
1 44868U 19091A   26168.22058715 -.00000205  00000+0  00000+0 0  9999
2 44868   0.0255 233.4462 0000361  33.7266 227.6986  1.00270457 24018
ELEKTRO-L 3             
1 44903U 19095A   26167.95109037 -.00000099  00000+0  00000+0 0  9997
2 44903   0.2565  81.4760 0000923 351.4483 250.6356  1.00271396 23706
SHIJIAN-20 (SJ-20)      
1 44910U 19097A   26167.77266743  .00000130  00000+0  00000+0 0  9990
2 44910   4.9181  75.0677 0014461  55.4920  97.5458  1.00272716 23690
TJS-5                   
1 44978U 20002A   26168.64928888 -.00000347  00000+0  00000+0 0  9995
2 44978   0.0129 326.1028 0007308  80.2859 200.7379  1.00268310 23710
GSAT-30                 
1 45026U 20005A   26167.98647617 -.00000168  00000+0  00000+0 0  9998
2 45026   0.0731  96.0231 0003365 349.0369 258.3046  1.00271026 23509
EUTELSAT KONNECT        
1 45027U 20005B   26167.75755976  .00000047  00000+0  00000+0 0  9997
2 45027   0.0717  96.7174 0001470 123.4907 324.7594  1.00272204 24331
JCSAT-17                
1 45245U 20013A   26167.85433800 -.00000319  00000+0  00000+0 0  9991
2 45245   5.3924 356.8743 0002484  85.9465 265.8782  1.00271784 23223
GEO-KOMPSAT-2B          
1 45246U 20013B   26167.78151464 -.00000346  00000+0  00000+0 0  9997
2 45246   0.0482 207.9959 0000719  72.2379  34.4258  1.00270667 23274
BEIDOU-3 G2             
1 45344U 20017A   26167.84333128 -.00000145  00000+0  00000+0 0  9993
2 45344   2.8632  47.3361 0002022  32.3154 209.1334  1.00271955 23255
AEHF-6 (USA 298)        
1 45465U 20022B   26168.29211315 -.00000301  00000+0  00000+0 0  9990
2 45465   2.5477 301.1658 0043163  17.0264 190.2940  1.00271239 23018
BEIDOU-3 G3             
1 45807U 20040A   26168.64958084 -.00000359  00000+0  00000+0 0  9993
2 45807   2.4485  67.4438 0002358 335.7201 207.0744  1.00266120 22073
APSTAR-6D               
1 45863U 20045A   26167.21227648 -.00000318  00000+0  00000+0 0  9992
2 45863   0.0537  97.5409 0002150 352.5328  24.8640  1.00270601 21850
KOREASAT 116            
1 45920U 20048A   26167.77917463 -.00000364  00000+0  00000+0 0  9992
2 45920   0.0243 294.0652 0000758 184.8171 182.8645  1.00269281 21634
EXPRESS 103             
1 45985U 20053A   26167.81587510 -.00000283  00000+0  00000+0 0  9990
2 45985   0.0184 283.4607 0000657  30.9815 340.8491  1.00271930 21645
EXPRESS 80              
1 45986U 20053B   26167.04354958 -.00000135  00000+0  00000+0 0  9990
2 45986   0.0173 309.5561 0001671 223.5219 186.9198  1.00271830 21628
BSAT-4B                 
1 46112U 20056A   26167.94457681 -.00000353  00000+0  00000+0 0  9993
2 46112   0.0475 151.4698 0003923 323.2366 240.3746  1.00271775 21388
MEV-2                   
1 46113U 20056B   26167.66137045 -.00000013  00000+0  00000+0 0  9995
2 46113   0.0133 313.0240 0000200 252.2268 296.7595  1.00271868 80538
GALAXY 30 (G-30)        
1 46114U 20056C   26168.46842113  .00000032  00000+0  00000+0 0  9994
2 46114   0.0129  49.2349 0002124  37.4194 222.6923  1.00271406 21299
GAOFEN-13 01            
1 46610U 20071A   26168.65428242 -.00000368  00000+0  00000+0 0  9999
2 46610   0.5234  84.8441 0041375 123.7119  51.1052  1.00270292 20926
TIANTONG-1 2            
1 46916U 20082A   26168.65560391 -.00000361  00000+0  00000+0 0  9995
2 46916   0.7894 327.6198 0000975 105.7293 193.4997  1.00269075 20655
LUCAS (JDRS-1)          
1 47202U 20089A   26167.93662209 -.00000238  00000+0  00000+0 0  9995
2 47202   0.0589 273.4182 0002249 148.4347 271.3313  1.00269844 20415
SXM-7                   
1 47240U 20096A   26168.27600623 -.00000209  00000+0  00000+0 0  9993
2 47240   0.0305  95.3298 0003747  29.8426 154.5649  1.00270009  7443
CMS-01                  
1 47256U 20099A   26167.98647617 -.00000168  00000+0  00000+0 0  9998
2 47256   0.0983  94.6072 0003754 181.2395  67.5206  1.00270660 20192
TURKSAT 5A              
1 47306U 21001A   26167.97603337  .00000151  00000+0  00000+0 0  9999
2 47306   0.0216  61.3987 0000118 196.0319  30.1069  1.00271004 19963
TIANTONG-1 3            
1 47321U 21003A   26167.70096123 -.00000156  00000+0  00000+0 0  9994
2 47321   1.7566 339.2751 0003010 111.7896 147.7845  1.00270401 19956
TJS-6                   
1 47613U 21010A   26167.79148135  .00000040  00000+0  00000+0 0  9997
2 47613   0.2522 264.3177 0002905 225.2564 238.9023  1.00269233 19807
SBIRS GEO-5 (USA 315)   
1 48618U 21042A   26168.64269704 -.00000272  00000+0  00000+0 0  9997
2 48618   5.1028 329.1386 0001300 121.0759 140.8559  1.00270437 18775
FENGYUN 4B              
1 48808U 21047A   26168.64762948 -.00000335  00000+0  00000+0 0  9991
2 48808   0.1549  77.5711 0005953 275.4565 250.6521  1.00276423 18570
SXM-8                   
1 48838U 21049A   26168.23274498 -.00000209  00000+0  00000+0 0  9999
2 48838   0.0173  14.2714 0005155  15.4498 234.4117  1.00271623 18586
TIANLIAN 1-05           
1 49011U 21063A   26167.75946642  .00000104  00000+0  00000+0 0  9995
2 49011   1.5933  80.7053 0000519 323.4124 151.1151  1.00271058 18070
