OBJECT_NAME,OBJECT_ID,EPOCH,MEAN_MOTION,ECCENTRICITY,INCLINATION,RA_OF_ASC_NODE,ARG_OF_PERICENTER,MEAN_ANOMALY,EPHEMERIS_TYPE,CLASSIFICATION_TYPE,NORAD_CAT_ID,ELEMENT_SET_NO,REV_AT_EPOCH,BSTAR,MEAN_MOTION_DOT,MEAN_MOTION_DDOT
TIBA-1,2019-080A,2026-06-16T22:09:29.066976,1.00270598,.00018156,0.0531,11.4815,85.4779,176.0733,0,U,44800,999,2405,0,.153E-5,0
INMARSAT GX5,2019-080B,2026-06-16T21:57:33.522048,1.00272863,.00022659,0.0344,353.9608,108.1800,143.4606,0,U,44801,999,678,0,.72E-6,0
JCSAT-18 (KACIFIC 1),2019-091A,2026-06-17T05:17:38.729760,1.00270457,.00003614,0.0255,233.4462,33.7266,227.6986,0,U,44868,999,2401,0,-.205E-5,0
ELEKTRO-L 3,2019-095A,2026-06-16T22:49:34.207968,1.00271396,.00009234,0.2565,81.4760,351.4483,250.6356,0,U,44903,999,2370,0,-.99E-6,0
SHIJIAN-20 (SJ-20),2019-097A,2026-06-16T18:32:38.465952,1.00272716,.00144619,4.9181,75.0677,55.4920,97.5458,0,U,44910,999,2369,0,.13E-5,0
TJS-5,2020-002A,2026-06-17T15:34:58.559232,1.00268310,.00073083,0.0129,326.1028,80.2859,200.7379,0,U,44978,999,2371,0,-.347E-5,0
GSAT-30,2020-005A,2026-06-16T23:40:31.541088,1.00271026,.00033651,0.0731,96.0231,349.0369,258.3046,0,U,45026,999,2350,0,-.168E-5,0
EUTELSAT KONNECT,2020-005B,2026-06-16T18:10:53.163264,1.00272204,.00014703,0.0717,96.7174,123.4907,324.7594,0,U,45027,999,2433,0,.47E-6,0
JCSAT-17,2020-013A,2026-06-16T20:30:14.803200,1.00271784,.00024847,5.3924,356.8743,85.9465,265.8782,0,U,45245,999,2322,0,-.319E-5,0
GEO-KOMPSAT-2B,2020-013B,2026-06-16T18:45:22.864896,1.00270667,.00007191,0.0482,207.9959,72.2379,34.4258,0,U,45246,999,2327,0,-.346E-5,0
BEIDOU-3 G2,2020-017A,2026-06-16T20:14:23.822592,1.00271955,.00020226,2.8632,47.3361,32.3154,209.1334,0,U,45344,999,2325,0,-.145E-5,0
AEHF-6 (USA 298),2020-022B,2026-06-17T07:00:38.576160,1.00271239,.00431634,2.5477,301.1658,17.0264,190.2940,0,U,45465,999,2301,0,-.301E-5,0
BEIDOU-3 G3,2020-040A,2026-06-17T15:35:23.784576,1.00266120,.00023583,2.4485,67.4438,335.7201,207.0744,0,U,45807,999,2207,0,-.359E-5,0
APSTAR-6D,2020-045A,2026-06-16T05:05:40.687872,1.00270601,.000215,0.0537,97.5409,352.5328,24.8640,0,U,45863,999,2185,0,-.318E-5,0
KOREASAT 116,2020-048A,2026-06-16T18:42:00.688032,1.00269281,.00007589,0.0243,294.0652,184.8171,182.8645,0,U,45920,999,2163,0,-.364E-5,0
EXPRESS 103,2020-053A,2026-06-16T19:34:51.608640,1.00271930,.00006579,0.0184,283.4607,30.9815,340.8491,0,U,45985,999,2164,0,-.283E-5,0
EXPRESS 80,2020-053B,2026-06-16T01:02:42.683712,1.00271830,.00016711,0.0173,309.5561,223.5219,186.9198,0,U,45986,999,2162,0,-.135E-5,0
BSAT-4B,2020-056A,2026-06-16T22:40:11.436384,1.00271775,.00039236,0.0475,151.4698,323.2366,240.3746,0,U,46112,999,2138,0,-.353E-5,0
MEV-2,2020-056B,2026-06-16T15:52:22.406880,1.00271868,.00002004,0.0133,313.0240,252.2268,296.7595,0,U,46113,999,8053,0,-.13E-6,0
GALAXY 30 (G-30),2020-056C,2026-06-17T11:14:31.585632,1.00271406,.00021249,0.0129,49.2349,37.4194,222.6923,0,U,46114,999,2129,0,.32E-6,0
GAOFEN-13 01,2020-071A,2026-06-17T15:42:10.001088,1.00270292,.00413751,0.5234,84.8441,123.7119,51.1052,0,U,46610,999,2092,0,-.368E-5,0
TIANTONG-1 2,2020-082A,2026-06-17T15:44:04.177824,1.00269075,.00009753,0.7894,327.6198,105.7293,193.4997,0,U,46916,999,2065,0,-.361E-5,0
LUCAS (JDRS-1),2020-089A,2026-06-16T22:28:44.148576,1.00269844,.00022497,0.0589,273.4182,148.4347,271.3313,0,U,47202,999,2041,0,-.238E-5,0
SXM-7,2020-096A,2026-06-17T06:37:26.938272,1.00270009,.00037472,0.0305,95.3298,29.8426,154.5649,0,U,47240,999,744,0,-.209E-5,0
CMS-01,2020-099A,2026-06-16T23:40:31.541088,1.00270660,.00037549,0.0983,94.6072,181.2395,67.5206,0,U,47256,999,2019,0,-.168E-5,0
TURKSAT 5A,2021-001A,2026-06-16T23:25:29.283168,1.00271004,.00001181,0.0216,61.3987,196.0319,30.1069,0,U,47306,999,1996,0,.151E-5,0
TIANTONG-1 3,2021-003A,2026-06-16T16:49:23.050272,1.00270401,.00030104,1.7566,339.2751,111.7896,147.7845,0,U,47321,999,1995,0,-.156E-5,0
TJS-6,2021-010A,2026-06-16T18:59:43.988640,1.00269233,.00029055,0.2522,264.3177,225.2564,238.9023,0,U,47613,999,1980,0,.4E-6,0
SBIRS GEO-5 (USA 315),2021-042A,2026-06-17T15:25:29.024256,1.00270437,.00013005,5.1028,329.1386,121.0759,140.8559,0,U,48618,999,1877,0,-.272E-5,0
FENGYUN 4B,2021-047A,2026-06-17T15:32:35.187072,1.00276423,.00059532,0.1549,77.5711,275.4565,250.6521,0,U,48808,999,1857,0,-.335E-5,0
SXM-8,2021-049A,2026-06-17T05:35:09.166272,1.00271623,.00051556,0.0173,14.2714,15.4498,234.4117,0,U,48838,999,1858,0,-.209E-5,0
TIANLIAN 1-05,2021-063A,2026-06-16T18:13:37.898688,1.00271058,.00005194,1.5933,80.7053,323.4124,151.1151,0,U,49011,999,1807,0,.104E-5,0
